NOAA 13 [-]             
1 22739U 93050A   17346.23867467 -.00000024  00000-0  93096-5 0  9993
2 22739  98.5371  26.9359 0009997  31.5376 328.6394 14.12696170254576
